NORAD_CAT_ID,OBJECT_NAME,OBJECT_TYPE,EPOCH,MEAN_MOTION,ECCENTRICITY,INCLINATION,RA_OF_ASC_NODE,ARG_OF_PERICENTER,MEAN_ANOMALY,BSTAR,MEAN_MOTION_DOT,MEAN_MOTION_DDOT,TLE_LINE0,TLE_LINE1,TLE_LINE2,SEMIMAJOR_AXIS,PERIOD,APOGEE,PERIGEE,DECAYED
54070.0,STARLINK-5181,PAYLOAD,2023-12-13 10:55:32,15.08840727,0.0001436,53.2185,52.5253,71.8107,288.3041,3.3964e-06,-2.34e-06,0.0,0 STARLINK-5181,1 54070U 22136V   23347.45523468 -.00000234  00000-0  33964-5 0  9996,2 54070  53.2185  52.5253 0001436  71.8107 288.3041 15.08840727 63953,6917.878,95.438,540.737,538.75,0.0
54070.0,STARLINK-5181,PAYLOAD,2023-12-13 23:38:36,15.08853271,0.0001346,53.2182,50.1454,74.6343,285.4798,2.9745e-06,-2.41e-06,0.0,0 STARLINK-5181,1 54070U 22136V   23347.98514461 -.00000241  00000-0  29745-5 0  9997,2 54070  53.2182  50.1454 0001346  74.6343 285.4798 15.08853271 64035,6917.84,95.437,540.636,538.774,0.0
54070.0,STARLINK-5181,PAYLOAD,2023-12-14 10:46:18,15.08849043,0.0001715,53.2185,48.0671,61.6019,298.5146,0.00025118,3.713e-05,0.0,0 STARLINK-5181,1 54070U 22136V   23348.44882213  .00003713  00000-0  25118-3 0  9996,2 54070  53.2185  48.0671 0001715  61.6019 298.5146 15.08849043 63629,6917.853,95.437,540.904,538.531,0.0
54070.0,STARLINK-5181,PAYLOAD,2023-12-15 10:37:05,15.08845138,0.0001704,53.2203,43.6087,98.8582,261.2603,-2.8773e-05,-7.46e-06,0.0,0 STARLINK-5181,1 54070U 22136V   23349.44242899 -.00000746  00000-0 -28773-4 0  9993,2 54070  53.2203  43.6087 0001704  98.8582 261.2603 15.08845138 64253,6917.865,95.437,540.908,538.551,0.0
54070.0,STARLINK-5181,PAYLOAD,2023-12-16 10:27:52,15.08841934,0.0001711,53.2199,39.1468,101.3171,258.8013,-7.0243e-05,-1.406e-05,0.0,0 STARLINK-5181,1 54070U 22136V   23350.43602998 -.00001406  00000-0 -70243-4 0  9997,2 54070  53.2199  39.1468 0001711 101.3171 258.8013 15.08841934 63922,6917.874,95.437,540.923,538.556,0.0
54070.0,STARLINK-5181,PAYLOAD,2023-12-17 08:43:17,15.08832207,0.0001722,53.2197,34.983,105.6028,254.5154,1.6828e-05,-2e-07,0.0,0 STARLINK-5181,1 54070U 22136V   23351.36339446 -.00000020  00000-0  16828-4 0  9994,2 54070  53.2197  34.9830 0001722 105.6028 254.5154 15.08832207 64547,6917.904,95.438,540.96,538.578,0.0
54070.0,STARLINK-5181,PAYLOAD,2023-12-18 10:09:26,15.08824311,0.0001649,53.2189,30.2224,95.3457,264.7723,0.00051237,7.872e-05,0.0,0 STARLINK-5181,1 54070U 22136V   23352.42322627  .00007872  00000-0  51237-3 0  9998,2 54070  53.2189  30.2224 0001649  95.3457 264.7723 15.08824311 64703,6917.928,95.439,540.934,538.653,0.0
54070.0,STARLINK-5181,PAYLOAD,2023-12-19 10:00:14,15.08839725,0.0001386,53.219,25.7633,98.0048,262.1102,2.8818e-05,1.71e-06,0.0,0 STARLINK-5181,1 54070U 22136V   23353.41683445  .00000171  00000-0  28818-4 0  9991,2 54070  53.2190  25.7633 0001386  98.0048 262.1102 15.08839725 64373,6917.881,95.438,540.705,538.787,0.0
54070.0,STARLINK-5181,PAYLOAD,2023-12-20 08:15:38,15.08842584,0.0001596,53.2196,21.5974,74.1257,285.9911,-3.8751e-05,-9.05e-06,0.0,0 STARLINK-5181,1 54070U 22136V   23354.34419778 -.00000905  00000-0 -38751-4 0  9994,2 54070  53.2196  21.5974 0001596  74.1257 285.9911 15.08842584 64515,6917.872,95.437,540.842,538.633,0.0
54070.0,STARLINK-5181,PAYLOAD,2023-12-21 08:06:24,15.08856614,0.0001719,53.2203,17.1344,68.1768,291.9407,0.00023039,3.382e-05,0.0,0 STARLINK-5181,1 54070U 22136V   23355.33778164  .00003382  00000-0  23039-3 0  9993,2 54070  53.2203  17.1344 0001719  68.1768 291.9407 15.08856614 65149,6917.83,95.437,540.884,538.505,0.0
54070.0,STARLINK-5181,PAYLOAD,2023-12-22 07:57:12,15.08841764,0.000134,53.2193,12.6821,117.2427,242.8702,-1.7324e-05,-5.64e-06,0.0,0 STARLINK-5181,1 54070U 22136V   23356.33139283 -.00000564  00000-0 -17324-4 0  9999,2 54070  53.2193  12.6821 0001340 117.2427 242.8702 15.08841764 65294,6917.875,95.437,540.667,538.813,0.0
54070.0,STARLINK-5181,PAYLOAD,2023-12-23 07:47:59,15.08843465,0.0001152,53.218,8.2158,84.8914,275.2209,-0.0001143,-2.107e-05,0.0,0 STARLINK-5181,1 54070U 22136V   23357.32499451 -.00002107  00000-0 -11430-3 0  9991,2 54070  53.2180   8.2158 0001152  84.8914 275.2209 15.08843465 64960,6917.87,95.437,540.532,538.938,0.0
54070.0,STARLINK-5181,PAYLOAD,2023-12-24 01:17:14,15.08833359,0.0001183,53.2177,4.9492,93.9318,266.1809,0.00018851,2.713e-05,0.0,0 STARLINK-5181,1 54070U 22136V   23358.05364278  .00002713  00000-0  18851-3 0  9995,2 54070  53.2177   4.9492 0001183  93.9318 266.1809 15.08833359 65555,6917.901,95.438,540.584,538.947,0.0
54070.0,STARLINK-5181,PAYLOAD,2023-12-24 06:03:23,15.08841472,0.0001245,53.2176,4.0575,66.8473,293.265,0.00017886,2.56e-05,0.0,0 STARLINK-5181,1 54070U 22136V   23358.25236040  .00002560  00000-0  17886-3 0  9999,2 54070  53.2176   4.0575 0001245  66.8473 293.2650 15.08841472 65108,6917.876,95.437,540.602,538.88,0.0
54070.0,STARLINK-5181,PAYLOAD,2023-12-25 04:18:48,15.08830146,0.0001491,53.2189,359.8952,70.2385,289.8768,0.00042183,6.43e-05,0.0,0 STARLINK-5181,1 54070U 22136V   23359.17972831  .00006430  00000-0  42183-3 0  9994,2 54070  53.2189 359.8952 0001491  70.2385 289.8768 15.08830146 65721,6917.911,95.438,540.807,538.744,0.0
54070.0,STARLINK-5181,PAYLOAD,2023-12-25 05:54:11,15.0883464,0.0001463,53.2189,359.5977,71.549,288.5661,0.0002622,3.887e-05,0.0,0 STARLINK-5181,1 54070U 22136V   23359.24596567  .00003887  00000-0  26220-3 0  9997,2 54070  53.2189 359.5977 0001463  71.5490 288.5661 15.08834640 65254,6917.897,95.438,540.774,538.75,0.0
54070.0,STARLINK-5181,PAYLOAD,2023-12-26 08:55:44,15.08838727,0.0001661,53.2196,354.5393,91.6527,268.4655,8.0309e-05,9.9e-06,0.0,0 STARLINK-5181,1 54070U 22136V   23360.37204624  .00000990  00000-0  80309-4 0  9994,2 54070  53.2196 354.5393 0001661  91.6527 268.4655 15.08838727 65905,6917.884,95.438,540.898,538.6,0.0
54070.0,STARLINK-5181,PAYLOAD,2023-12-27 08:46:30,15.08851829,0.0001749,53.2191,350.0782,91.7514,268.3679,0.00022461,3.29e-05,0.0,0 STARLINK-5181,1 54070U 22136V   23361.36563548  .00003290  00000-0  22461-3 0  9997,2 54070  53.2191 350.0782 0001749  91.7514 268.3679 15.08851829 66057,6917.844,95.437,540.919,538.499,0.0
54070.0,STARLINK-5181,PAYLOAD,2023-12-28 03:51:09,15.08841404,0.0001818,53.2185,346.5101,104.0903,256.0291,0.00010854,1.44e-05,0.0,0 STARLINK-5181,1 54070U 22136V   23362.16052390  .00001440  00000-0  10854-3 0  9992,2 54070  53.2185 346.5101 0001818 104.0903 256.0291 15.08841404 66177,6917.876,95.437,540.999,538.483,0.0
54070.0,STARLINK-5181,PAYLOAD,2023-12-28 08:37:18,15.08846486,0.0001723,53.2182,345.6179,98.3554,261.7633,0.00018254,2.619e-05,0.0,0 STARLINK-5181,1 54070U 22136V   23362.35924193  .00002619  00000-0  18254-3 0  9993,2 54070  53.2182 345.6179 0001723  98.3554 261.7633 15.08846486 65729,6917.861,95.437,540.918,538.534,0.0
54070.0,STARLINK-5181,PAYLOAD,2023-12-29 08:28:05,15.08843875,0.0001787,53.2202,341.1538,94.2633,265.8563,3.1807e-05,2.18e-06,0.0,0 STARLINK-5181,1 54070U 22136V   23363.35284432  .00000218  00000-0  31807-4 0  9992,2 54070  53.2202 341.1538 0001787  94.2633 265.8563 15.08843875 66351,6917.869,95.437,540.97,538.497,0.0
54070.0,STARLINK-5181,PAYLOAD,2023-12-30 08:18:52,15.08841851,0.0001807,53.2195,336.6944,114.2057,245.9124,2.8457e-05,1.65e-06,0.0,0 STARLINK-5181,1 54070U 22136V   23364.34644534  .00000165  00000-0  28457-4 0  9993,2 54070  53.2195 336.6944 0001807 114.2057 245.9124 15.08841851 66026,6917.875,95.437,540.99,538.49,0.0
54070.0,STARLINK-5181,PAYLOAD,2023-12-30 22:37:21,15.08835973,0.0002031,53.2185,334.0178,120.2217,239.8976,3.177e-05,2.17e-06,0.0,0 STARLINK-5181,1 54070U 22136V   23364.94261000  .00000217  00000-0  31770-4 0  9992,2 54070  53.2185 334.0178 0002031 120.2217 239.8976 15.08835973 66116,6917.893,95.438,541.163,538.353,0.0
54070.0,STARLINK-5181,PAYLOAD,2023-12-31 03:23:30,15.08840733,0.0001908,53.2185,333.125,119.5257,240.5926,1.0536e-05,-1.2e-06,0.0,0 STARLINK-5181,1 54070U 22136V   23365.14132783 -.00000120  00000-0  10536-4 0  9991,2 54070  53.2185 333.1250 0001908 119.5257 240.5926 15.08840733 66624,6917.878,95.438,541.063,538.423,0.0
54070.0,STARLINK-5181,PAYLOAD,2023-12-31 08:09:40,15.08840594,0.0001773,53.2186,332.2344,115.3093,244.8083,1.433e-05,-6e-07,0.0,0 STARLINK-5181,1 54070U 22136V   23365.34004830 -.00000060  00000-0  14330-4 0  9993,2 54070  53.2186 332.2344 0001773 115.3093 244.8083 15.08840594 66177,6917.879,95.438,540.97,538.517,0.0
54070.0,STARLINK-5181,PAYLOAD,2024-01-01 03:14:18,15.0883616,0.0001706,53.2183,328.6653,106.2037,253.9143,7.1267e-05,8.46e-06,0.0,0 STARLINK-5181,1 54070U 22136V   24001.13493292  .00000846  00000-0  71267-4 0  9995,2 54070  53.2183 328.6653 0001706 106.2037 253.9143 15.08836160 66777,6917.892,95.438,540.937,538.577,0.0
54070.0,STARLINK-5181,PAYLOAD,2024-01-01 08:00:27,15.0884515,0.0001675,53.2178,327.7744,110.6344,249.4828,-5.9259e-05,-1.231e-05,0.0,0 STARLINK-5181,1 54070U 22136V   24001.33365106 -.00001231  00000-0 -59259-4 0  9997,2 54070  53.2178 327.7744 0001675 110.6344 249.4828 15.08845150 66327,6917.865,95.437,540.888,538.571,0.0
54070.0,STARLINK-5181,PAYLOAD,2024-01-02 04:40:27,15.08853008,0.0001684,53.2184,323.9087,103.6347,256.4833,0.00019495,2.817e-05,0.0,0 STARLINK-5181,1 54070U 22136V   24002.19476157  .00002817  00000-0  19495-3 0  9997,2 54070  53.2184 323.9087 0001684 103.6347 256.4833 15.08853008 66939,6917.841,95.437,540.871,538.541,0.0
54070.0,STARLINK-5181,PAYLOAD,2024-01-02 06:15:50,15.08855513,0.0001677,53.2184,323.6111,103.2711,256.8469,0.00021158,3.082e-05,0.0,0 STARLINK-5181,1 54070U 22136V   24002.26099983  .00003082  00000-0  21158-3 0  9997,2 54070  53.2184 323.6111 0001677 103.2711 256.8469 15.08855513 66467,6917.833,95.437,540.858,538.538,0.0
54070.0,STARLINK-5181,PAYLOAD,2024-01-03 02:55:52,15.088409,0.0001479,53.2184,319.7467,95.1236,264.9925,9.1295e-05,1.165e-05,0.0,0 STARLINK-5181,1 54070U 22136V   24003.12213241  .00001165  00000-0  91295-4 0  9998,2 54070  53.2184 319.7467 0001479  95.1236 264.9925 15.08840900 67077,6917.878,95.437,540.766,538.719,0.0
